ONEWEB-0572             
1 55151U 23004M   25215.49864947 -.00000007  00000+0 -50458-4 0  9996
2 55151  87.9037  69.0935 0001582  82.9475 277.1836 13.17647687125648
ONEWEB-0573             
1 55152U 23004N   25215.49530154  .00000044  00000+0  78475-4 0  9995
2 55152  87.9108  38.6164 0000964  77.1703 282.9537 13.18687109127825
ONEWEB-0588             
1 55153U 23004P   25215.48870337  .00000045  00000+0  82148-4 0  9998
2 55153  87.9115  38.6021 0001319  93.3983 266.7300 13.18686222127824
ONEWEB-0598             
1 55154U 23004Q   25215.38420906  .00000391  00000+0  10675-2 0  9999
2 55154  87.8801  84.4250 0001693  59.0711 301.0584 13.11418431124240
ONEWEB-0599             
1 55155U 23004R   25215.53578320 -.00000005  00000+0 -46403-4 0  9995
2 55155  87.9045  69.0890 0001895  76.5835 283.5508 13.17649709125652
ONEWEB-0614             
1 55156U 23004S   25215.15022897  .00000211  00000+0  55987-3 0  9990
2 55156  87.8805  84.4814 0001612  91.0369 269.0944 13.11418028124153
ONEWEB-0616             
1 55157U 23004T   25215.50202832 -.00000097  00000+0 -28294-3 0  9994
2 55157  87.9037  69.0879 0002754  74.4617 285.6818 13.17648521125863
ONEWEB-0617             
1 55158U 23004U   25215.59613112 -.00000490  00000+0 -14193-2 0  9990
2 55158  87.8796  84.3717 0001406  86.6566 273.4723 13.11416902124237
ONEWEB-0618             
1 55159U 23004V   25215.28997694  .00001097  00000+0  18902-3 0  9992
2 55159  86.9108 305.0788 0015370  30.5925 329.6183 14.67572246134475
ONEWEB-0619             
1 55160U 23004W   25215.53408943 -.00000001  00000+0 -34798-4 0  9994
2 55160  87.9031  69.0577 0002080  96.7520 263.3848 13.17648638125762
ONEWEB-0620             
1 55161U 23004X   25215.59104517 -.00000683  00000+0 -19644-2 0  9998
2 55161  87.8802  84.3935 0001582  76.4268 283.7036 13.11417211124204
ONEWEB-0621             
1 55162U 23004Y   25215.16041151  .00000549  00000+0  15120-2 0  9990
2 55162  87.8806  84.4358 0001808  87.9037 272.2298 13.11416909124128
ONEWEB-0622             
1 55163U 23004Z   25215.39438608  .00000562  00000+0  15489-2 0  9996
2 55163  87.8797  84.4126 0001142 101.3338 258.7919 13.11417150124147
ONEWEB-0623             
1 55164U 23004AA  25215.60496310  .00000064  00000+0  13205-3 0  9997
2 55164  87.9032  69.1001 0001624 109.6228 250.5078 13.17650582125766
ONEWEB-0624             
1 55165U 23004AB  25215.55483821  .00000214  00000+0  55540-3 0  9990
2 55165  87.8853  53.7954 0001764  88.1310 272.0021 13.12941942126396
ONEWEB-0625             
1 55166U 23004AC  25215.51890056  .00000074  00000+0  15813-3 0  9992
2 55166  87.9033  69.1142 0001932  81.0186 279.1165 13.17648897125741
ONEWEB-0626             
1 55167U 23004AD  25215.58470913  .00000056  00000+0  11022-3 0  9994
2 55167  87.9032  69.0998 0001579  65.6559 294.4737 13.17648033125756
