[{"OBJECT_NAME":"ONEWEB-0572","OBJECT_ID":"2023-004M","EPOCH":"2025-08-03T11:58:03.314208","MEAN_MOTION":13.17647687,"ECCENTRICITY":0.0001582,"INCLINATION":87.9037,"RA_OF_ASC_NODE":69.0935,"ARG_OF_PERICENTER":82.9475,"MEAN_ANOMALY":277.1836,"EPHEMERIS_TYPE":0,"CLASSIFICATION_TYPE":"U","NORAD_CAT_ID":55151,"ELEMENT_SET_NO":999,"REV_AT_EPOCH":12564,"BSTAR":-5.0458e-5,"MEAN_MOTION_DOT":-7.0e-8,"MEAN_MOTION_DDOT":0},{"OBJECT_NAME":"ONEWEB-0573","OBJECT_ID":"2023-004N","EPOCH":"2025-08-03T11:53:14.053056","MEAN_MOTION":13.18687109,"ECCENTRICITY":9.64e-5,"INCLINATION":87.9108,"RA_OF_ASC_NODE":38.6164,"ARG_OF_PERICENTER":77.1703,"MEAN_ANOMALY":282.9537,"EPHEMERIS_TYPE":0,"CLASSIFICATION_TYPE":"U","NORAD_CAT_ID":55152,"ELEMENT_SET_NO":999,"REV_AT_EPOCH":12782,"BSTAR":7.8475e-5,"MEAN_MOTION_DOT":4.4e-7,"MEAN_MOTION_DDOT":0},{"OBJECT_NAME":"ONEWEB-0588","OBJECT_ID":"2023-004P","EPOCH":"2025-08-03T11:43:43.971168","MEAN_MOTION":13.18686222,"ECCENTRICITY":0.0001319,"INCLINATION":87.9115,"RA_OF_ASC_NODE":38.6021,"ARG_OF_PERICENTER":93.3983,"MEAN_ANOMALY":266.73,"EPHEMERIS_TYPE":0,"CLASSIFICATION_TYPE":"U","NORAD_CAT_ID":55153,"ELEMENT_SET_NO":999,"REV_AT_EPOCH":12782,"BSTAR":8.2148e-5,"MEAN_MOTION_DOT":4.5e-7,"MEAN_MOTION_DDOT":0},{"OBJECT_NAME":"ONEWEB-0598","OBJECT_ID":"2023-004Q","EPOCH":"2025-08-03T09:13:15.662784","MEAN_MOTION":13.11418431,"ECCENTRICITY":0.0001693,"INCLINATION":87.8801,"RA_OF_ASC_NODE":84.425,"ARG_OF_PERICENTER":59.0711,"MEAN_ANOMALY":301.0584,"EPHEMERIS_TYPE":0,"CLASSIFICATION_TYPE":"U","NORAD_CAT_ID":55154,"ELEMENT_SET_NO":999,"REV_AT_EPOCH":12424,"BSTAR":0.0010675,"MEAN_MOTION_DOT":3.91e-6,"MEAN_MOTION_DDOT":0},{"OBJECT_NAME":"ONEWEB-0599","OBJECT_ID":"2023-004R","EPOCH":"2025-08-03T12:51:31.668480","MEAN_MOTION":13.17649709,"ECCENTRICITY":0.0001895,"INCLINATION":87.9045,"RA_OF_ASC_NODE":69.089,"ARG_OF_PERICENTER":76.5835,"MEAN_ANOMALY":283.5508,"EPHEMERIS_TYPE":0,"CLASSIFICATION_TYPE":"U","NORAD_CAT_ID":55155,"ELEMENT_SET_NO":999,"REV_AT_EPOCH":12565,"BSTAR":-4.6403e-5,"MEAN_MOTION_DOT":-5.0e-8,"MEAN_MOTION_DDOT":0},{"OBJECT_NAME":"ONEWEB-0614","OBJECT_ID":"2023-004S","EPOCH":"2025-08-03T03:36:19.783008","MEAN_MOTION":13.11418028,"ECCENTRICITY":0.0001612,"INCLINATION":87.8805,"RA_OF_ASC_NODE":84.4814,"ARG_OF_PERICENTER":91.0369,"MEAN_ANOMALY":269.0944,"EPHEMERIS_TYPE":0,"CLASSIFICATION_TYPE":"U","NORAD_CAT_ID":55156,"ELEMENT_SET_NO":999,"REV_AT_EPOCH":12415,"BSTAR":0.00055987,"MEAN_MOTION_DOT":2.11e-6,"MEAN_MOTION_DDOT":0},{"OBJECT_NAME":"ONEWEB-0616","OBJECT_ID":"2023-004T","EPOCH":"2025-08-03T12:02:55.246848","MEAN_MOTION":13.17648521,"ECCENTRICITY":0.0002754,"INCLINATION":87.9037,"RA_OF_ASC_NODE":69.0879,"ARG_OF_PERICENTER":74.4617,"MEAN_ANOMALY":285.6818,"EPHEMERIS_TYPE":0,"CLASSIFICATION_TYPE":"U","NORAD_CAT_ID":55157,"ELEMENT_SET_NO":999,"REV_AT_EPOCH":12586,"BSTAR":-0.00028294,"MEAN_MOTION_DOT":-9.7e-7,"MEAN_MOTION_DDOT":0},{"OBJECT_NAME":"ONEWEB-0617","OBJECT_ID":"2023-004U","EPOCH":"2025-08-03T14:18:25.728768","MEAN_MOTION":13.11416902,"ECCENTRICITY":0.0001406,"INCLINATION":87.8796,"RA_OF_ASC_NODE":84.3717,"ARG_OF_PERICENTER":86.6566,"MEAN_ANOMALY":273.4723,"EPHEMERIS_TYPE":0,"CLASSIFICATION_TYPE":"U","NORAD_CAT_ID":55158,"ELEMENT_SET_NO":999,"REV_AT_EPOCH":12423,"BSTAR":-0.0014193,"MEAN_MOTION_DOT":-4.9e-6,"MEAN_MOTION_DDOT":0},{"OBJECT_NAME":"ONEWEB-0618","OBJECT_ID":"2023-004V","EPOCH":"2025-08-03T06:57:34.007616","MEAN_MOTION":14.67572246,"ECCENTRICITY":0.001537,"INCLINATION":86.9108,"RA_OF_ASC_NODE":305.0788,"ARG_OF_PERICENTER":30.5925,"MEAN_ANOMALY":329.6183,"EPHEMERIS_TYPE":0,"CLASSIFICATION_TYPE":"U","NORAD_CAT_ID":55159,"ELEMENT_SET_NO":999,"REV_AT_EPOCH":13447,"BSTAR":0.00018902,"MEAN_MOTION_DOT":1.097e-5,"MEAN_MOTION_DDOT":0},{"OBJECT_NAME":"ONEWEB-0619","OBJECT_ID":"2023-004W","EPOCH":"2025-08-03T12:49:05.326752","MEAN_MOTION":13.17648638,"ECCENTRICITY":0.000208,"INCLINATION":87.9031,"RA_OF_ASC_NODE":69.0577,"ARG_OF_PERICENTER":96.752,"MEAN_ANOMALY":263.3848,"EPHEMERIS_TYPE":0,"CLASSIFICATION_TYPE":"U","NORAD_CAT_ID":55160,"ELEMENT_SET_NO":999,"REV_AT_EPOCH":12576,"BSTAR":-3.4798e-5,"MEAN_MOTION_DOT":-1.0e-8,"MEAN_MOTION_DDOT":0},{"OBJECT_NAME":"ONEWEB-0620","OBJECT_ID":"2023-004X","EPOCH":"2025-08-03T14:11:06.302688","MEAN_MOTION":13.11417211,"ECCENTRICITY":0.0001582,"INCLINATION":87.8802,"RA_OF_ASC_NODE":84.3935,"ARG_OF_PERICENTER":76.4268,"MEAN_ANOMALY":283.7036,"EPHEMERIS_TYPE":0,"CLASSIFICATION_TYPE":"U","NORAD_CAT_ID":55161,"ELEMENT_SET_NO":999,"REV_AT_EPOCH":12420,"BSTAR":-0.0019644,"MEAN_MOTION_DOT":-6.83e-6,"MEAN_MOTION_DDOT":0},{"OBJECT_NAME":"ONEWEB-0621","OBJECT_ID":"2023-004Y","EPOCH":"2025-08-03T03:50:59.554464","MEAN_MOTION":13.11416909,"ECCENTRICITY":0.0001808,"INCLINATION":87.8806,"RA_OF_ASC_NODE":84.4358,"ARG_OF_PERICENTER":87.9037,"MEAN_ANOMALY":272.2298,"EPHEMERIS_TYPE":0,"CLASSIFICATION_TYPE":"U","NORAD_CAT_ID":55162,"ELEMENT_SET_NO":999,"REV_AT_EPOCH":12412,"BSTAR":0.001512,"MEAN_MOTION_DOT":5.49e-6,"MEAN_MOTION_DDOT":0},{"OBJECT_NAME":"ONEWEB-0622","OBJECT_ID":"2023-004Z","EPOCH":"2025-08-03T09:27:54.957312","MEAN_MOTION":13.1141715,"ECCENTRICITY":0.0001142,"INCLINATION":87.8797,"RA_OF_ASC_NODE":84.4126,"ARG_OF_PERICENTER":101.3338,"MEAN_ANOMALY":258.7919,"EPHEMERIS_TYPE":0,"CLASSIFICATION_TYPE":"U","NORAD_CAT_ID":55163,"ELEMENT_SET_NO":999,"REV_AT_EPOCH":12414,"BSTAR":0.0015489,"MEAN_MOTION_DOT":5.62e-6,"MEAN_MOTION_DDOT":0},{"OBJECT_NAME":"ONEWEB-0623","OBJECT_ID":"2023-004AA","EPOCH":"2025-08-03T14:31:08.811840","MEAN_MOTION":13.17650582,"ECCENTRICITY":0.0001624,"INCLINATION":87.9032,"RA_OF_ASC_NODE":69.1001,"ARG_OF_PERICENTER":109.6228,"MEAN_ANOMALY":250.5078,"EPHEMERIS_TYPE":0,"CLASSIFICATION_TYPE":"U","NORAD_CAT_ID":55164,"ELEMENT_SET_NO":999,"REV_AT_EPOCH":12576,"BSTAR":0.00013205,"MEAN_MOTION_DOT":6.4e-7,"MEAN_MOTION_DDOT":0},{"OBJECT_NAME":"ONEWEB-0624","OBJECT_ID":"2023-004AB","EPOCH":"2025-08-03T13:18:58.021344","MEAN_MOTION":13.12941942,"ECCENTRICITY":0.0001764,"INCLINATION":87.8853,"RA_OF_ASC_NODE":53.7954,"ARG_OF_PERICENTER":88.131,"MEAN_ANOMALY":272.0021,"EPHEMERIS_TYPE":0,"CLASSIFICATION_TYPE":"U","NORAD_CAT_ID":55165,"ELEMENT_SET_NO":999,"REV_AT_EPOCH":12639,"BSTAR":0.0005554,"MEAN_MOTION_DOT":2.14e-6,"MEAN_MOTION_DDOT":0},{"OBJECT_NAME":"ONEWEB-0625","OBJECT_ID":"2023-004AC","EPOCH":"2025-08-03T12:27:13.008384","MEAN_MOTION":13.17648897,"ECCENTRICITY":0.0001932,"INCLINATION":87.9033,"RA_OF_ASC_NODE":69.1142,"ARG_OF_PERICENTER":81.0186,"MEAN_ANOMALY":279.1165,"EPHEMERIS_TYPE":0,"CLASSIFICATION_TYPE":"U","NORAD_CAT_ID":55166,"ELEMENT_SET_NO":999,"REV_AT_EPOCH":12574,"BSTAR":0.00015813,"MEAN_MOTION_DOT":7.4e-7,"MEAN_MOTION_DDOT":0},{"OBJECT_NAME":"ONEWEB-0626","OBJECT_ID":"2023-004AD","EPOCH":"2025-08-03T14:01:58.868832","MEAN_MOTION":13.17648033,"ECCENTRICITY":0.0001579,"INCLINATION":87.9032,"RA_OF_ASC_NODE":69.0998,"ARG_OF_PERICENTER":65.6559,"MEAN_ANOMALY":294.4737,"EPHEMERIS_TYPE":0,"CLASSIFICATION_TYPE":"U","NORAD_CAT_ID":55167,"ELEMENT_SET_NO":999,"REV_AT_EPOCH":12575,"BSTAR":0.00011022,"MEAN_MOTION_DOT":5.6e-7,"MEAN_MOTION_DDOT":0}]
